[{"OBJECT_NAME":"YAOGAN-12","OBJECT_ID":"2011-066B","EPOCH":"2026-03-09T23:39:51.505056","MEAN_MOTION":15.25407482,"ECCENTRICITY":0.00091131,"INCLINATION":97.1283,"RA_OF_ASC_NODE":112.2403,"ARG_OF_PERICENTER":209.5466,"MEAN_ANOMALY":150.5259,"EPHEMERIS_TYPE":0,"CLASSIFICATION_TYPE":"U","NORAD_CAT_ID":37875,"ELEMENT_SET_NO":999,"REV_AT_EPOCH":79691,"BSTAR":0.0002218082,"MEAN_MOTION_DOT":5.54e-5,"MEAN_MOTION_DDOT":0},{"OBJECT_NAME":"STARLINK-30903","OBJECT_ID":"2023-177E","EPOCH":"2026-03-09T22:00:01.999584","MEAN_MOTION":15.26760945,"ECCENTRICITY":0.00016428,"INCLINATION":43.001,"RA_OF_ASC_NODE":349.1146,"ARG_OF_PERICENTER":270.9576,"MEAN_ANOMALY":124.2836,"EPHEMERIS_TYPE":0,"CLASSIFICATION_TYPE":"U","NORAD_CAT_ID":58355,"ELEMENT_SET_NO":999,"REV_AT_EPOCH":578,"BSTAR":-0.00070103944,"MEAN_MOTION_DOT":-0.00019028,"MEAN_MOTION_DDOT":0}]
